{"type": "FeatureCollection", "features": [ {"type": "Feature", "properties": {"norad_id": 41836, "name": "HIMAWARI-9", "group": "weather", "lat": 0.031504840782225985, "lon": 122.97021562190844, "alt_km": 35793.78922654166, "timestamp": "2025-12-19T16:54:43.892524+00:00", "meta": {"OBJECT_NAME": "HIMAWARI-9", "OBJECT_ID": "2016-064A", "EPOCH": "2025-12-18T18:07:09.740640", "MEAN_MOTION": 1.00269108, "ECCENTRICITY": 0.00019267, "INCLINATION": 0.02, "RA_OF_ASC_NODE": 341.613, "ARG_OF_PERICENTER": 353.5172, "MEAN_ANOMALY": 165.0202, "EPHEMERIS_TYPE": 0, "CLASSIFICATION_TYPE": "U", "NORAD_CAT_ID": 41836, "ELEMENT_SET_NO": 999, "REV_AT_EPOCH": 3340, "BSTAR": 0, "MEAN_MOTION_DOT": 0, "MEAN_MOTION_DDOT": 0}, "tle": {"line1": "1 41836U 16064A   25352.75497385  .00000000  00000+0  00000+0 0  9992", "line2": "2 41836   0.0200 341.6130 0001926 353.5172 165.0202  1.00269108 33401"}}, "geometry": {"type": "Point", "coordinates": [122.97021562190844, 0.031504840782225985]}}, {"type": "Feature", "properties": {"norad_id": 41866, "name": "GOES 16", "group": "weather", "lat": 0.02157042103905502, "lon": -122.46516788638435, "alt_km": 35774.59001363969, "timestamp": "2025-12-19T16:54:43.892543+00:00", "meta": {"OBJECT_NAME": "GOES 16", "OBJECT_ID": "2016-071A", "EPOCH": "2025-12-19T05:57:50.126976", "MEAN_MOTION": 1.00272227, "ECCENTRICITY": 0.00030291, "INCLINATION": 0.0722, "RA_OF_ASC_NODE": 103.4628, "ARG_OF_PERICENTER": 161.7639, "MEAN_ANOMALY": 167.6603, "EPHEMERIS_TYPE": 0, "CLASSIFICATION_TYPE": "U", "NORAD_CAT_ID": 41866, "ELEMENT_SET_NO": 999, "REV_AT_EPOCH": 3329, "BSTAR": 0, "MEAN_MOTION_DOT": -6.6e-07, "MEAN_MOTION_DDOT": 0}, "tle": {"line1": "1 41866U 16071A   25353.24849684 -.00000066  00000+0  00000+0 0  9994", "line2": "2 41866   0.0722 103.4628 0003029 161.7639 167.6603  1.00272227 33298"}}, "geometry": {"type": "Point", "coordinates": [-122.46516788638435, 0.02157042103905502]}}, {"type": "Feature", "properties": {"norad_id": 41882, "name": "FENGYUN 4A", "group": "weather", "lat": 0.7729937841212636, "lon": 105.9127719129148, "alt_km": 35796.865046852974, "timestamp": "2025-12-19T16:54:43.892561+00:00", "meta": {"OBJECT_NAME": "FENGYUN 4A", "OBJECT_ID": "2016-077A", "EPOCH": "2025-12-19T07:00:18.890784", "MEAN_MOTION": 1.00266764, "ECCENTRICITY": 0.00045063, "INCLINATION": 1.8653, "RA_OF_ASC_NODE": 82.329, "ARG_OF_PERICENTER": 142.9597, "MEAN_ANOMALY": 91.6851, "EPHEMERIS_TYPE": 0, "CLASSIFICATION_TYPE": "U", "NORAD_CAT_ID": 41882, "ELEMENT_SET_NO": 999, "REV_AT_EPOCH": 3312, "BSTAR": 0, "MEAN_MOTION_DOT": -3.34e-06, "MEAN_MOTION_DDOT": 0}, "tle": {"line1": "1 41882U 16077A   25353.29188531 -.00000334  00000+0  00000+0 0  9998", "line2": "2 41882   1.8653  82.3290 0004506 142.9597  91.6851  1.00266764 33125"}}, "geometry": {"type": "Point", "coordinates": [105.9127719129148, 0.7729937841212636]}}, {"type": "Feature", "properties": {"norad_id": 41884, "name": "CYGFM05", "group": "weather", "lat": -2.2138978879978826, "lon": -1.5454898725742021, "alt_km": 424.73263300894905, "timestamp": "2025-12-19T16:54:43.892579+00:00", "meta": {"OBJECT_NAME": "CYGFM05", "OBJECT_ID": "2016-078A", "EPOCH": "2025-12-19T06:05:36.718944", "MEAN_MOTION": 15.47868032, "ECCENTRICITY": 0.00107256, "INCLINATION": 34.9605, "RA_OF_ASC_NODE": 4.5719, "ARG_OF_PERICENTER": 240.726, "MEAN_ANOMALY": 119.239, "EPHEMERIS_TYPE": 0, "CLASSIFICATION_TYPE": "U", "NORAD_CAT_ID": 41884, "ELEMENT_SET_NO": 999, "REV_AT_EPOCH": 50077, "BSTAR": 0.00027976145, "MEAN_MOTION_DOT": 0.00015017, "MEAN_MOTION_DDOT": 0}, "tle": {"line1": "1 41884U 16078A   25353.25389721  .00015017  00000+0  27976-3 0  9999", "line2": "2 41884  34.9605   4.5719 0010725 240.7260 119.2390 15.47868032500774"}}, "geometry": {"type": "Point", "coordinates": [-1.5454898725742021, -2.2138978879978826]}}, {"type": "Feature", "properties": {"norad_id": 41885, "name": "CYGFM04", "group": "weather", "lat": -28.15359179729734, "lon": -73.85362611387923, "alt_km": 411.0793735288971, "timestamp": "2025-12-19T16:54:43.892595+00:00", "meta": {"OBJECT_NAME": "CYGFM04", "OBJECT_ID": "2016-078B", "EPOCH": "2025-12-19T06:20:03.920928", "MEAN_MOTION": 15.50624747, "ECCENTRICITY": 0.00097617, "INCLINATION": 34.9358, "RA_OF_ASC_NODE": 339.0933, "ARG_OF_PERICENTER": 265.9533, "MEAN_ANOMALY": 94.0073, "EPHEMERIS_TYPE": 0, "CLASSIFICATION_TYPE": "U", "NORAD_CAT_ID": 41885, "ELEMENT_SET_NO": 999, "REV_AT_EPOCH": 50095, "BSTAR": 0.00030977194, "MEAN_MOTION_DOT": 0.0001834, "MEAN_MOTION_DDOT": 0}, "tle": {"line1": "1 41885U 16078B   25353.26393427  .00018340  00000+0  30977-3 0  9996", "line2": "2 41885  34.9358 339.0933 0009761 265.9533  94.0073 15.50624747500959"}}, "geometry": {"type": "Point", "coordinates": [-73.85362611387923, -28.15359179729734]}}, {"type": "Feature", "properties": {"norad_id": 41886, "name": "CYGFM02", "group": "weather", "lat": -4.2740050090486355, "lon": -31.70822834265063, "alt_km": 409.1517743993327, "timestamp": "2025-12-19T16:54:43.892612+00:00", "meta": {"OBJECT_NAME": "CYGFM02", "OBJECT_ID": "2016-078C", "EPOCH": "2025-12-19T06:08:16.944288", "MEAN_MOTION": 15.52023647, "ECCENTRICITY": 0.0011407, "INCLINATION": 34.9446, "RA_OF_ASC_NODE": 337.3882, "ARG_OF_PERICENTER": 266.0452, "MEAN_ANOMALY": 93.8967, "EPHEMERIS_TYPE": 0, "CLASSIFICATION_TYPE": "U", "NORAD_CAT_ID": 41886, "ELEMENT_SET_NO": 999, "REV_AT_EPOCH": 50108, "BSTAR": 0.0002897568, "MEAN_MOTION_DOT": 0.00018049, "MEAN_MOTION_DDOT": 0}, "tle": {"line1": "1 41886U 16078C   25353.25575167  .00018049  00000+0  28976-3 0  9991", "line2": "2 41886  34.9446 337.3882 0011407 266.0452  93.8967 15.52023647501082"}}, "geometry": {"type": "Point", "coordinates": [-31.70822834265063, -4.2740050090486355]}}, {"type": "Feature", "properties": {"norad_id": 41887, "name": "CYGFM01", "group": "weather", "lat": 27.962935047821063, "lon": 53.41825771956648, "alt_km": 422.92612576821375, "timestamp": "2025-12-19T16:54:43.892628+00:00", "meta": {"OBJECT_NAME": "CYGFM01", "OBJECT_ID": "2016-078D", "EPOCH": "2025-12-19T05:50:39.834240", "MEAN_MOTION": 15.48453572, "ECCENTRICITY": 0.00103824, "INCLINATION": 34.9436, "RA_OF_ASC_NODE": 6.9435, "ARG_OF_PERICENTER": 233.3394, "MEAN_ANOMALY": 126.6374, "EPHEMERIS_TYPE": 0, "CLASSIFICATION_TYPE": "U", "NORAD_CAT_ID": 41887, "ELEMENT_SET_NO": 999, "REV_AT_EPOCH": 50071, "BSTAR": 0.00028486021, "MEAN_MOTION_DOT": 0.00015609, "MEAN_MOTION_DDOT": 0}, "tle": {"line1": "1 41887U 16078D   25353.24351660  .00015609  00000+0  28486-3 0  9996", "line2": "2 41887  34.9436   6.9435 0010382 233.3394 126.6374 15.48453572500713"}}, "geometry": {"type": "Point", "coordinates": [53.41825771956648, 27.962935047821063]}}, {"type": "Feature", "properties": {"norad_id": 41888, "name": "CYGFM08", "group": "weather", "lat": 24.35987883632326, "lon": 126.41745361828325, "alt_km": 417.7079078787483, "timestamp": "2025-12-19T16:54:43.892645+00:00", "meta": {"OBJECT_NAME": "CYGFM08", "OBJECT_ID": "2016-078E", "EPOCH": "2025-12-19T05:30:50.106240", "MEAN_MOTION": 15.49675615, "ECCENTRICITY": 0.00119959, "INCLINATION": 34.9468, "RA_OF_ASC_NODE": 349.9489, "ARG_OF_PERICENTER": 255.7772, "MEAN_ANOMALY": 104.1618, "EPHEMERIS_TYPE": 0, "CLASSIFICATION_TYPE": "U", "NORAD_CAT_ID": 41888, "ELEMENT_SET_NO": 999, "REV_AT_EPOCH": 50094, "BSTAR": 0.00030070746, "MEAN_MOTION_DOT": 0.00017224, "MEAN_MOTION_DDOT": 0}, "tle": {"line1": "1 41888U 16078E   25353.22974660  .00017224  00000+0  30071-3 0  9994", "line2": "2 41888  34.9468 349.9489 0011995 255.7772 104.1618 15.49675615500949"}}, "geometry": {"type": "Point", "coordinates": [126.41745361828325, 24.35987883632326]}}, {"type": "Feature", "properties": {"norad_id": 41890, "name": "CYGFM07", "group": "weather", "lat": 23.26038686601113, "lon": 117.78930542956462, "alt_km": 416.5113834288295, "timestamp": "2025-12-19T16:54:43.892662+00:00", "meta": {"OBJECT_NAME": "CYGFM07", "OBJECT_ID": "2016-078G", "EPOCH": "2025-12-19T07:03:12.057984", "MEAN_MOTION": 15.50266491, "ECCENTRICITY": 0.0010123, "INCLINATION": 34.9484, "RA_OF_ASC_NODE": 338.4723, "ARG_OF_PERICENTER": 271.3651, "MEAN_ANOMALY": 88.5912, "EPHEMERIS_TYPE": 0, "CLASSIFICATION_TYPE": "U", "NORAD_CAT_ID": 41890, "ELEMENT_SET_NO": 999, "REV_AT_EPOCH": 50097, "BSTAR": 0.00031053689, "MEAN_MOTION_DOT": 0.00018153, "MEAN_MOTION_DDOT": 0}, "tle": {"line1": "1 41890U 16078G   25353.29388956  .00018153  00000+0  31054-3 0  9995", "line2": "2 41890  34.9484 338.4723 0010123 271.3651  88.5912 15.50266491500971"}}, "geometry": {"type": "Point", "coordinates": [117.78930542956462, 23.26038686601113]}}, {"type": "Feature", "properties": {"norad_id": 41891, "name": "CYGFM03", "group": "weather", "lat": -17.34557283792079, "lon": -48.87055434147091, "alt_km": 414.29749389551307, "timestamp": "2025-12-19T16:54:43.892678+00:00", "meta": {"OBJECT_NAME": "CYGFM03", "OBJECT_ID": "2016-078H", "EPOCH": "2025-12-19T06:13:39.730368", "MEAN_MOTION": 15.5016211, "ECCENTRICITY": 0.0009683, "INCLINATION": 34.9439, "RA_OF_ASC_NODE": 340.6207, "ARG_OF_PERICENTER": 259.0452, "MEAN_ANOMALY": 100.9181, "EPHEMERIS_TYPE": 0, "CLASSIFICATION_TYPE": "U", "NORAD_CAT_ID": 41891, "ELEMENT_SET_NO": 999, "REV_AT_EPOCH": 50094, "BSTAR": 0.00030160455, "MEAN_MOTION_DOT": 0.0001756, "MEAN_MOTION_DDOT": 0}, "tle": {"line1": "1 41891U 16078H   25353.25948762  .00017560  00000+0  30160-3 0  9997", "line2": "2 41891  34.9439 340.6207 0009683 259.0452 100.9181 15.50162110500942"}}, "geometry": {"type": "Point", "coordinates": [-48.87055434147091, -17.34557283792079]}}]}